IRIDIUM 155             
1 43573U 18061E   21147.33841335  .00000066  00000-0  16623-4 0  9997
2 43573  86.3948 108.5520 0001755  83.8814 276.2582 14.34216369148647
IRIDIUM 154             
1 43574U 18061F   21147.31937594  .00000073  00000-0  19144-4 0  9998
2 43574  86.3952 108.6056 0002500  83.2117 276.9363 14.34219548148698
IRIDIUM 163             
1 43575U 18061G   21147.30035815  .00000067  00000-0  16683-4 0  9991
2 43575  86.3949 108.5850 0002559  97.3530 262.7957 14.34216964148663
IRIDIUM 156             
1 43576U 18061H   21147.34475569  .00000063  00000-0  15540-4 0  9997
2 43576  86.3949 108.5715 0002103  94.3771 265.7665 14.34216170148661
IRIDIUM 164             
1 43577U 18061J   21147.32572587  .00000070  00000-0  17825-4 0  9990
2 43577  86.3950 108.5917 0002496  86.6206 273.5275 14.34217918148700
IRIDIUM 159             
1 43578U 18061K   21147.29401603  .00000062  00000-0  14939-4 0  9991
2 43578  86.3949 108.5806 0002437  84.6366 275.5107 14.34217464148663
IRIDIUM 180             
1 43922U 19002A   21147.43305254  .00000110  00000-0  32235-4 0  9994
2 43922  86.4000  45.3576 0003179  84.5976 275.5583 14.34218611124293
IRIDIUM 176             
1 43923U 19002B   21147.20453406  .00000200  00000-0  27742-4 0  9990
2 43923  86.6134  45.4852 0002502  83.8932 276.2570 14.72250868127508
IRIDIUM 168             
1 43924U 19002C   21147.42670374  .00000108  00000-0  31391-4 0  9992
2 43924  86.4003  45.3853 0002436  81.5633 278.5839 14.34219736124272
IRIDIUM 173             
1 43925U 19002D   21147.41401700  .00000101  00000-0  28977-4 0  9996
2 43925  86.3999  45.3546 0002384  83.7598 276.3869 14.34218298124250
IRIDIUM 169             
1 43926U 19002E   21147.54656890  .00000090  00000-0  22887-4 0  9994
2 43926  86.4235  76.8982 0003448 324.3811  35.7157 14.38606577124737
IRIDIUM 172             
1 43927U 19002F   21147.26813240  .00000100  00000-0  28510-4 0  9999
2 43927  86.4000  45.4178 0002478  83.4881 276.6597 14.34220136124248
IRIDIUM 175             
1 43928U 19002G   21147.47022861  .00000196  00000-0  27247-4 0  9995
2 43928  86.6118  45.1984 0002659  99.0217 261.1301 14.72251902127534
IRIDIUM 171             
1 43929U 19002H   21147.45841948  .00000108  00000-0  31505-4 0  9994
2 43929  86.4009  45.4395 0002414  81.2433 278.9036 14.34218745124267
IRIDIUM 170             
1 43930U 19002J   21147.27866413  .00000199  00000-0  27573-4 0  9990
2 43930  86.6135  45.4607 0002661  86.9204 273.2317 14.72248460127520
IRIDIUM 167             
1 43931U 19002K   21147.45209803  .00000105  00000-0  30538-4 0  9997
2 43931  86.3999  45.3471 0002945  82.7419 277.4112 14.34218070124260
